[{"OBJECT_NAME":"LEMUR-2-PETERG","OBJECT_ID":"2017-042S","EPOCH":"2026-03-09T11:34:35.656032","MEAN_MOTION":15.29611459,"ECCENTRICITY":0.00037,"INCLINATION":97.398,"RA_OF_ASC_NODE":253.6596,"ARG_OF_PERICENTER":341.6938,"MEAN_ANOMALY":18.4169,"EPHEMERIS_TYPE":0,"CLASSIFICATION_TYPE":"U","NORAD_CAT_ID":42841,"ELEMENT_SET_NO":999,"REV_AT_EPOCH":47317,"BSTAR":0.00081076471,"MEAN_MOTION_DOT":0.0002324,"MEAN_MOTION_DDOT":0},{"OBJECT_NAME":"STARLINK-31460","OBJECT_ID":"2024-036L","EPOCH":"2026-03-09T23:11:26.123712","MEAN_MOTION":15.30213399,"ECCENTRICITY":0.00013278,"INCLINATION":53.16,"RA_OF_ASC_NODE":76.9822,"ARG_OF_PERICENTER":88.5121,"MEAN_ANOMALY":271.6032,"EPHEMERIS_TYPE":0,"CLASSIFICATION_TYPE":"U","NORAD_CAT_ID":59008,"ELEMENT_SET_NO":999,"REV_AT_EPOCH":11536,"BSTAR":-9.737316e-5,"MEAN_MOTION_DOT":-3.243e-5,"MEAN_MOTION_DDOT":0}]
